      2.10          N: GNSS NAV DATA                        RINEX VERSION / TYPE
fic2rin                                 05/25/2019 00:18:34 PGM / RUN BY / DATE
                                                            END OF HEADER
30 19  5 24 10  0  0.0-1.105186529458e-04-7.162270776462e-12 0.000000000000e+00
    6.300000000000e+01 1.787500000000e+01 5.189144720135e-09 1.521013520067e+00
    1.156702637672e-06 4.035103134811e-03 7.696449756622e-06 5.153587907791e+03
    4.680000000000e+05 5.960464477539e-08 3.227075304754e-01 7.078051567078e-08
    9.413396759474e-01 2.219062500000e+02-2.966431683192e+00-8.314989209819e-09
   -4.032310819074e-10 1.000000000000e+00 2.054000000000e+03 0.000000000000e+00
    2.400000000000e+00 0.000000000000e+00 3.725290298462e-09 6.300000000000e+01
    4.608000000000e+05 4.000000000000e+00
25 19  5 24 10  0  0.0-7.593114860356e-04-3.637978807092e-12 0.000000000000e+00
    5.400000000000e+01 7.540625000000e+01 4.251248510136e-09 4.053157948469e-01
    4.017725586891e-06 8.438924560323e-03 7.629394531250e-06 5.153713481903e+03
    4.680000000000e+05-5.960464477539e-08 1.330143264275e+00 1.080334186554e-07
    9.701601144686e-01 2.364062500000e+02 8.981340684433e-01-8.021762710044e-09
   -2.175090601254e-10 1.000000000000e+00 2.054000000000e+03 0.000000000000e+00
    2.400000000000e+00 0.000000000000e+00 6.053596735001e-09 5.400000000000e+01
    4.608000000000e+05 4.000000000000e+00
15 19  5 24 10  0  0.0-3.112121485174e-04 2.160049916711e-12 0.000000000000e+00
    6.500000000000e+01 1.340625000000e+01 5.574875073067e-09-2.862586443336e+00
    4.582107067108e-07 1.131573144812e-02 6.809830665588e-06 5.153685434341e+03
    4.680000000000e+05 3.352761268616e-08-8.611520245870e-01-2.123415470123e-07
    9.277964294854e-01 2.317812500000e+02 7.758814058434e-01-8.275701859057e-09
    2.446530479243e-10 1.000000000000e+00 2.054000000000e+03 0.000000000000e+00
    2.400000000000e+00 0.000000000000e+00-1.117587089539e-08 6.500000000000e+01
    4.608000000000e+05 4.000000000000e+00
14 19  5 24 10  0  0.0-7.915124297142e-05 1.591615728103e-12 0.000000000000e+00
    4.400000000000e+01 6.781250000000e+00 4.827701093128e-09-2.234087531307e+00
    3.837049007416e-07 1.063960243482e-02 6.588175892830e-06 5.153696537018e+03
    4.680000000000e+05 1.620501279831e-07-6.884089812830e-01 4.470348358154e-08
    9.604278266569e-01 2.486250000000e+02-1.940067838996e+00-7.887114244252e-09
    2.303667385565e-10 1.000000000000e+00 2.054000000000e+03 0.000000000000e+00
    2.400000000000e+00 0.000000000000e+00-9.778887033463e-09 4.400000000000e+01
    4.608000000000e+05 4.000000000000e+00
10 19  5 24 10  0  0.0 3.731390461326e-05-1.114131009672e-11 0.000000000000e+00
    3.800000000000e+01-4.593750000000e+01 4.403040547169e-09 4.518692523395e-02
   -2.304092049599e-06 4.565532086417e-03 9.741634130478e-06 5.153665088654e+03
    4.680000000000e+05 3.725290298462e-08-1.816965556000e+00 7.450580596924e-08
    9.626419912057e-01 1.936875000000e+02-2.692250175301e+00-7.906043604165e-09
    3.950164540209e-10 1.000000000000e+00 2.054000000000e+03 0.000000000000e+00
    2.400000000000e+00 0.000000000000e+00 1.862645149231e-09 3.800000000000e+01
    4.608000000000e+05 4.000000000000e+00
13 19  5 24 10  0  0.0-6.227008998394e-05 1.705302565824e-12 0.000000000000e+00
    9.000000000000e+01 1.518750000000e+01 4.700552939755e-09-3.000609074635e+00
    6.649643182755e-07 3.535027732141e-03 6.793066859245e-06 5.153657833099e+03
    4.680000000000e+05 8.940696716309e-08-6.440330568705e-01-4.470348358154e-08
    9.678897899576e-01 2.520312500000e+02 1.295823541143e+00-7.942830850787e-09
    8.964659128322e-11 1.000000000000e+00 2.054000000000e+03 0.000000000000e+00
    2.400000000000e+00 0.000000000000e+00-1.117587089539e-08 9.000000000000e+01
    4.608000000000e+05 4.000000000000e+00
11 19  5 24 10  0  0.0-6.000394932926e-04 8.185452315956e-12 0.000000000000e+00
    8.900000000000e+01-4.921875000000e+01 5.614162423828e-09 1.406691728437e+00
   -2.890825271606e-06 1.662103994749e-02 2.581626176834e-06 5.153707592010e+03
    4.680000000000e+05 2.775341272354e-07 2.976929066919e+00-3.091990947723e-07
    9.097422341642e-01 3.019062500000e+02 1.887346138102e+00-8.810009829415e-09
    1.785788670980e-11 1.000000000000e+00 2.054000000000e+03 0.000000000000e+00
    2.400000000000e+00 0.000000000000e+00-1.257285475731e-08 8.900000000000e+01
    4.608000000000e+05 4.000000000000e+00
 9 19  5 24 10  0  0.0 4.053995944560e-04-7.275957614183e-12 0.000000000000e+00
    6.300000000000e+01 1.028125000000e+01 5.046281626456e-09-1.680884974783e+00
    6.500631570816e-07 1.225407933816e-03 7.122755050659e-06 5.153668376923e+03
    4.680000000000e+05-1.303851604462e-08-7.812046136336e-01 0.000000000000e+00
    9.523422038240e-01 2.412500000000e+02 1.761505752299e+00-8.123552664290e-09
    1.896507568581e-10 1.000000000000e+00 2.054000000000e+03 0.000000000000e+00
    2.400000000000e+00 0.000000000000e+00 1.396983861923e-09 6.300000000000e+01
    4.608000000000e+05 4.000000000000e+00
21 19  5 24 10  0  0.0-1.867078244686e-04 7.389644451905e-12 0.000000000000e+00
    4.800000000000e+01-8.215625000000e+01 4.838772982889e-09 2.847512972859e-01
   -4.369765520096e-06 2.459184150212e-02 5.831941962242e-06 5.153734687805e+03
    4.680000000000e+05-3.445893526077e-07-2.919979703938e+00-2.402812242508e-07
    9.487589586131e-01 2.675000000000e+02-1.441833209226e+00-8.721791869068e-09
   -1.253623647028e-10 1.000000000000e+00 2.054000000000e+03 0.000000000000e+00
    2.400000000000e+00 0.000000000000e+00-1.024454832077e-08 4.800000000000e+01
    4.608000000000e+05 4.000000000000e+00
31 19  5 24 10  0  0.0 3.599794581532e-05-2.614797267597e-12 0.000000000000e+00
    6.800000000000e+01 2.050000000000e+01 4.709481883110e-09 1.150338324803e+00
    1.301988959312e-06 9.209292242303e-03 7.845461368561e-06 5.153613492966e+03
    4.680000000000e+05 7.823109626770e-08 3.085314227265e-01 1.005828380585e-07
    9.604365880733e-01 2.246250000000e+02 4.974364733686e-03-8.013190924423e-09
   -5.318078662180e-10 1.000000000000e+00 2.054000000000e+03 0.000000000000e+00
    2.400000000000e+00 0.000000000000e+00-1.350417733192e-08 6.800000000000e+01
    4.608000000000e+05 4.000000000000e+00
26 19  5 24 10  0  0.0 2.093436196446e-04 9.663381206337e-12 0.000000000000e+00
    5.600000000000e+01 7.859375000000e+01 4.581976572002e-09-1.943567348238e-01
    3.922730684280e-06 3.732350771315e-03 8.065253496170e-06 5.153612850189e+03
    4.680000000000e+05 4.284083843231e-08 1.301616309064e+00 1.303851604462e-08
    9.514744988349e-01 2.181250000000e+02 1.710149654712e-01-8.131410134442e-09
   -2.464388365953e-10 1.000000000000e+00 2.054000000000e+03 0.000000000000e+00
    2.400000000000e+00 0.000000000000e+00 7.450580596924e-09 5.600000000000e+01
    4.608000000000e+05 4.000000000000e+00
29 19  5 24 10  0  0.0 1.939185895026e-04-9.322320693173e-12 0.000000000000e+00
    1.780000000000e+02 1.490625000000e+01 4.029810714934e-09-1.415404692967e+00
    7.618218660355e-07 1.089163939469e-03 3.207474946976e-06 5.153750959396e+03
    4.680000000000e+05 5.587935447693e-08 2.439467996080e+00-7.450580596924e-09
    9.855946419043e-01 3.307500000000e+02 1.684329656782e+00-8.036763334880e-09
    3.428714248282e-11 1.000000000000e+00 2.054000000000e+03 0.000000000000e+00
    2.400000000000e+00 0.000000000000e+00-9.778887033463e-09 1.780000000000e+02
    4.608000000000e+05 4.000000000000e+00
28 19  5 24 10  0  0.0 7.677939720452e-04-1.136868377216e-13 0.000000000000e+00
    1.010000000000e+02 6.903125000000e+01 4.013024301427e-09-1.170202702771e+00
    3.715977072716e-06 1.904158352409e-02 7.584691047668e-06 5.153706697464e+03
    4.680000000000e+05-3.334134817123e-07 1.417341669650e+00 2.607703208923e-07
    9.819797962001e-01 2.484375000000e+02-1.465684581703e+00-8.054621221590e-09
   -1.503634060966e-10 1.000000000000e+00 2.054000000000e+03 0.000000000000e+00
    2.400000000000e+00 0.000000000000e+00-1.117587089539e-08 1.010000000000e+02
    4.608000000000e+05 4.000000000000e+00
 6 19  5 24  9 59 44.0 1.971749588847e-04-1.023181539495e-11 0.000000000000e+00
    1.300000000000e+01-7.668750000000e+01 3.959807799032e-09 2.311314796773e+00
   -3.894791007042e-06 1.541875302792e-03 5.934387445450e-06 5.153590517044e+03
    4.679840000000e+05-1.676380634308e-08-2.864096626835e+00-3.725290298462e-09
    9.755531736712e-01 2.716250000000e+02-1.082979154223e+00-7.847112578022e-09
    2.642967233051e-11 1.000000000000e+00 2.054000000000e+03 0.000000000000e+00
    2.400000000000e+00 0.000000000000e+00 4.190951585770e-09 1.300000000000e+01
    4.608300000000e+05 4.000000000000e+00
 4 19  5 24 10  0  0.0 1.628138124943e-04 2.955857780762e-12 0.000000000000e+00
    2.100000000000e+01 9.250000000000e+00 4.889489381144e-09 1.295374476495e+00
    5.494803190231e-07 4.260996356606e-04 7.007271051407e-06 5.153746822357e+03
    4.680000000000e+05-3.539025783539e-08-7.360300032440e-01-3.539025783539e-08
    9.597371976609e-01 2.465312500000e+02-1.528509421604e+00-8.059621429869e-09
    1.778645516296e-10 1.000000000000e+00 2.054000000000e+03 0.000000000000e+00
    3.840000000000e+02 6.300000000000e+01-8.847564458847e-09 7.890000000000e+02
    4.608600000000e+05 4.000000000000e+00
 2 19  5 24 12  0  0.0-2.207532525063e-04-9.094947017729e-12 0.000000000000e+00
    1.000000000000e+01-8.106250000000e+01 4.359110145863e-09-2.828903455298e+00
   -4.064291715622e-06 1.888711971696e-02 5.071982741356e-06 5.153717962265e+03
    4.752000000000e+05 2.328306436539e-07-2.924523438254e+00-5.401670932770e-08
    9.550131016376e-01 2.765000000000e+02-1.740674858003e+00-7.773538084778e-09
    4.000166622996e-11 1.000000000000e+00 2.054000000000e+03 0.000000000000e+00
    2.400000000000e+00 0.000000000000e+00-2.048909664154e-08 1.000000000000e+01
    4.680000000000e+05 4.000000000000e+00
